ASIASTAR                
1 26107U 00016A   17345.93199294 -.00000339  00000-0  00000-0 0  9995
2 26107   2.0434  81.4783 0004153 180.3427 259.5434  1.00272600 64752
